[{"OBJECT_NAME":"OBJECT D","OBJECT_ID":"2024-173D","EPOCH":"2026-03-09T23:30:29.956896","MEAN_MOTION":15.27005733,"ECCENTRICITY":0.00090093,"INCLINATION":97.3606,"RA_OF_ASC_NODE":149.3901,"ARG_OF_PERICENTER":241.6081,"MEAN_ANOMALY":118.425,"EPHEMERIS_TYPE":0,"CLASSIFICATION_TYPE":"U","NORAD_CAT_ID":61230,"ELEMENT_SET_NO":999,"REV_AT_EPOCH":8130,"BSTAR":0.00072064626,"MEAN_MOTION_DOT":0.00019078,"MEAN_MOTION_DDOT":0},{"OBJECT_NAME":"INNOSAT 16 (RS92S7)","OBJECT_ID":"2025-155C","EPOCH":"2026-03-09T21:55:33.190176","MEAN_MOTION":15.24188147,"ECCENTRICITY":0.00110314,"INCLINATION":97.4467,"RA_OF_ASC_NODE":36.5104,"ARG_OF_PERICENTER":164.72,"MEAN_ANOMALY":195.4373,"EPHEMERIS_TYPE":0,"CLASSIFICATION_TYPE":"U","NORAD_CAT_ID":64878,"ELEMENT_SET_NO":999,"REV_AT_EPOCH":6554,"BSTAR":0.00039576165,"MEAN_MOTION_DOT":9.587e-5,"MEAN_MOTION_DDOT":0}]
